STARLINK-36319          
1 67970U 26038K   26069.16668981 -.01648399  00000+0 -73177-2 0  9994
2 67970  97.2717  79.4838 0001244  95.5577 175.6775 15.87088358  3242
STARLINK-36710          
1 67971U 26038L   26069.16668981 -.01645883  00000+0 -71843-2 0  9998
2 67971  97.2712  79.4887 0001212  96.7984 185.3002 15.87424973  3273
STARLINK-36894          
1 67972U 26038M   26069.16668981 -.01637706  00000+0 -70913-2 0  9991
2 67972  97.2706  79.4904 0001194  92.5517 194.4431 15.87572999  3271
STARLINK-36900          
1 67973U 26038N   26069.16668981 -.01639702  00000+0 -69928-2 0  9994
2 67973  97.2705  79.4945 0001178  88.4363 208.3713 15.87882376  3272
STARLINK-36901          
1 67974U 26038P   26069.16668981 -.01634540  00000+0 -70255-2 0  9995
2 67974  97.2705  79.4921 0001194  92.6674 198.9754 15.87715930  3277
STARLINK-36883          
1 67975U 26038Q   26069.16668981 -.01630702  00000+0 -67361-2 0  9996
2 67975  97.2692  79.5026 0001187  91.4984 225.2616 15.88504511  3276
STARLINK-36880          
1 67976U 26038R   26069.16668981 -.01637448  00000+0 -69278-2 0  9990
2 67976  97.2700  79.4964 0001174  92.1161 209.7138 15.88038125  3277
STARLINK-36904          
1 67977U 26038S   26069.16668981 -.01634676  00000+0 -68077-2 0  9997
2 67977  97.2693  79.5001 0001151  88.6454 223.1078 15.88349643  3275
STARLINK-36364          
1 67978U 26038T   26069.16668981 -.01630061  00000+0 -66074-2 0  9997
2 67978  97.2682  79.5073 0001134  87.9746 240.5836 15.88880329  3276
STARLINK-36359          
1 67979U 26038U   26069.16668981 -.01635939  00000+0 -68762-2 0  9993
2 67979  97.2697  79.4975 0001198  89.5281 216.4806 15.88166579  3278
STARLINK-36882          
1 67980U 26038V   26069.16668981 -.01632044  00000+0 -66761-2 0  9996
2 67980  97.2685  79.5049 0001133  89.8962 233.0661 15.88702256  3270
STARLINK-36874          
1 67981U 26038W   26069.08336806 -.01622434  00000+0 -64349-2 0  9998
2 67981  97.2681  79.4206 0001464  80.7593 135.5271 15.89294042  3260
