CCSDS_OMM_VERS = 2.0
CREATION_DATE  = 
ORIGINATOR     = 

OBJECT_NAME    = STARLINK-36319
OBJECT_ID      = 2026-038K
CENTER_NAME    = EARTH
REF_FRAME      = TEME
TIME_SYSTEM    = UTC
MEAN_ELEMENT_THEORY = SGP/SGP4

EPOCH          = 2026-03-10T04:00:01.999584
MEAN_MOTION    = 15.87088358
ECCENTRICITY   = .0001244
INCLINATION    = 97.2717
RA_OF_ASC_NODE = 79.4838
ARG_OF_PERICENTER = 95.5577
MEAN_ANOMALY   = 175.6775

EPHEMERIS_TYPE = 0
CLASSIFICATION_TYPE = U
NORAD_CAT_ID   = 67970
ELEMENT_SET_NO = 999
REV_AT_EPOCH   = 324
BSTAR          = -.73177E-2
MEAN_MOTION_DOT = -.1648399E-1
MEAN_MOTION_DDOT = 0

CCSDS_OMM_VERS = 2.0
CREATION_DATE  = 
ORIGINATOR     = 

OBJECT_NAME    = STARLINK-36710
OBJECT_ID      = 2026-038L
CENTER_NAME    = EARTH
REF_FRAME      = TEME
TIME_SYSTEM    = UTC
MEAN_ELEMENT_THEORY = SGP/SGP4

EPOCH          = 2026-03-10T04:00:01.999584
MEAN_MOTION    = 15.87424973
ECCENTRICITY   = .0001212
INCLINATION    = 97.2712
RA_OF_ASC_NODE = 79.4887
ARG_OF_PERICENTER = 96.7984
MEAN_ANOMALY   = 185.3002

EPHEMERIS_TYPE = 0
CLASSIFICATION_TYPE = U
NORAD_CAT_ID   = 67971
ELEMENT_SET_NO = 999
REV_AT_EPOCH   = 327
BSTAR          = -.71843E-2
MEAN_MOTION_DOT = -.1645883E-1
MEAN_MOTION_DDOT = 0

CCSDS_OMM_VERS = 2.0
CREATION_DATE  = 
ORIGINATOR     = 

OBJECT_NAME    = STARLINK-36894
OBJECT_ID      = 2026-038M
CENTER_NAME    = EARTH
REF_FRAME      = TEME
TIME_SYSTEM    = UTC
MEAN_ELEMENT_THEORY = SGP/SGP4

EPOCH          = 2026-03-10T04:00:01.999584
MEAN_MOTION    = 15.87572999
ECCENTRICITY   = .0001194
INCLINATION    = 97.2706
RA_OF_ASC_NODE = 79.4904
ARG_OF_PERICENTER = 92.5517
MEAN_ANOMALY   = 194.4431

EPHEMERIS_TYPE = 0
CLASSIFICATION_TYPE = U
NORAD_CAT_ID   = 67972
ELEMENT_SET_NO = 999
REV_AT_EPOCH   = 327
BSTAR          = -.70913E-2
MEAN_MOTION_DOT = -.1637706E-1
MEAN_MOTION_DDOT = 0

CCSDS_OMM_VERS = 2.0
CREATION_DATE  = 
ORIGINATOR     = 

OBJECT_NAME    = STARLINK-36900
OBJECT_ID      = 2026-038N
CENTER_NAME    = EARTH
REF_FRAME      = TEME
TIME_SYSTEM    = UTC
MEAN_ELEMENT_THEORY = SGP/SGP4

EPOCH          = 2026-03-10T04:00:01.999584
MEAN_MOTION    = 15.87882376
ECCENTRICITY   = .0001178
INCLINATION    = 97.2705
RA_OF_ASC_NODE = 79.4945
ARG_OF_PERICENTER = 88.4363
MEAN_ANOMALY   = 208.3713

EPHEMERIS_TYPE = 0
CLASSIFICATION_TYPE = U
NORAD_CAT_ID   = 67973
ELEMENT_SET_NO = 999
REV_AT_EPOCH   = 327
BSTAR          = -.69928E-2
MEAN_MOTION_DOT = -.1639702E-1
MEAN_MOTION_DDOT = 0

CCSDS_OMM_VERS = 2.0
CREATION_DATE  = 
ORIGINATOR     = 

OBJECT_NAME    = STARLINK-36901
OBJECT_ID      = 2026-038P
CENTER_NAME    = EARTH
REF_FRAME      = TEME
TIME_SYSTEM    = UTC
MEAN_ELEMENT_THEORY = SGP/SGP4

EPOCH          = 2026-03-10T04:00:01.999584
MEAN_MOTION    = 15.87715930
ECCENTRICITY   = .0001194
INCLINATION    = 97.2705
RA_OF_ASC_NODE = 79.4921
ARG_OF_PERICENTER = 92.6674
MEAN_ANOMALY   = 198.9754

EPHEMERIS_TYPE = 0
CLASSIFICATION_TYPE = U
NORAD_CAT_ID   = 67974
ELEMENT_SET_NO = 999
REV_AT_EPOCH   = 327
BSTAR          = -.70255E-2
MEAN_MOTION_DOT = -.163454E-1
MEAN_MOTION_DDOT = 0

CCSDS_OMM_VERS = 2.0
CREATION_DATE  = 
ORIGINATOR     = 

OBJECT_NAME    = STARLINK-36883
OBJECT_ID      = 2026-038Q
CENTER_NAME    = EARTH
REF_FRAME      = TEME
TIME_SYSTEM    = UTC
MEAN_ELEMENT_THEORY = SGP/SGP4

EPOCH          = 2026-03-10T04:00:01.999584
MEAN_MOTION    = 15.88504511
ECCENTRICITY   = .0001187
INCLINATION    = 97.2692
RA_OF_ASC_NODE = 79.5026
ARG_OF_PERICENTER = 91.4984
MEAN_ANOMALY   = 225.2616

EPHEMERIS_TYPE = 0
CLASSIFICATION_TYPE = U
NORAD_CAT_ID   = 67975
ELEMENT_SET_NO = 999
REV_AT_EPOCH   = 327
BSTAR          = -.67361E-2
MEAN_MOTION_DOT = -.1630702E-1
MEAN_MOTION_DDOT = 0

CCSDS_OMM_VERS = 2.0
CREATION_DATE  = 
ORIGINATOR     = 

OBJECT_NAME    = STARLINK-36880
OBJECT_ID      = 2026-038R
CENTER_NAME    = EARTH
REF_FRAME      = TEME
TIME_SYSTEM    = UTC
MEAN_ELEMENT_THEORY = SGP/SGP4

EPOCH          = 2026-03-10T04:00:01.999584
MEAN_MOTION    = 15.88038125
ECCENTRICITY   = .0001174
INCLINATION    = 97.2700
RA_OF_ASC_NODE = 79.4964
ARG_OF_PERICENTER = 92.1161
MEAN_ANOMALY   = 209.7138

EPHEMERIS_TYPE = 0
CLASSIFICATION_TYPE = U
NORAD_CAT_ID   = 67976
ELEMENT_SET_NO = 999
REV_AT_EPOCH   = 327
BSTAR          = -.69278E-2
MEAN_MOTION_DOT = -.1637448E-1
MEAN_MOTION_DDOT = 0

CCSDS_OMM_VERS = 2.0
CREATION_DATE  = 
ORIGINATOR     = 

OBJECT_NAME    = STARLINK-36904
OBJECT_ID      = 2026-038S
CENTER_NAME    = EARTH
REF_FRAME      = TEME
TIME_SYSTEM    = UTC
MEAN_ELEMENT_THEORY = SGP/SGP4

EPOCH          = 2026-03-10T04:00:01.999584
MEAN_MOTION    = 15.88349643
ECCENTRICITY   = .0001151
INCLINATION    = 97.2693
RA_OF_ASC_NODE = 79.5001
ARG_OF_PERICENTER = 88.6454
MEAN_ANOMALY   = 223.1078

EPHEMERIS_TYPE = 0
CLASSIFICATION_TYPE = U
NORAD_CAT_ID   = 67977
ELEMENT_SET_NO = 999
REV_AT_EPOCH   = 327
BSTAR          = -.68077E-2
MEAN_MOTION_DOT = -.1634676E-1
MEAN_MOTION_DDOT = 0

CCSDS_OMM_VERS = 2.0
CREATION_DATE  = 
ORIGINATOR     = 

OBJECT_NAME    = STARLINK-36364
OBJECT_ID      = 2026-038T
CENTER_NAME    = EARTH
REF_FRAME      = TEME
TIME_SYSTEM    = UTC
MEAN_ELEMENT_THEORY = SGP/SGP4

EPOCH          = 2026-03-10T04:00:01.999584
MEAN_MOTION    = 15.88880329
ECCENTRICITY   = .0001134
INCLINATION    = 97.2682
RA_OF_ASC_NODE = 79.5073
ARG_OF_PERICENTER = 87.9746
MEAN_ANOMALY   = 240.5836

EPHEMERIS_TYPE = 0
CLASSIFICATION_TYPE = U
NORAD_CAT_ID   = 67978
ELEMENT_SET_NO = 999
REV_AT_EPOCH   = 327
BSTAR          = -.66074E-2
MEAN_MOTION_DOT = -.1630061E-1
MEAN_MOTION_DDOT = 0

CCSDS_OMM_VERS = 2.0
CREATION_DATE  = 
ORIGINATOR     = 

OBJECT_NAME    = STARLINK-36359
OBJECT_ID      = 2026-038U
CENTER_NAME    = EARTH
REF_FRAME      = TEME
TIME_SYSTEM    = UTC
MEAN_ELEMENT_THEORY = SGP/SGP4

EPOCH          = 2026-03-10T04:00:01.999584
MEAN_MOTION    = 15.88166579
ECCENTRICITY   = .0001198
INCLINATION    = 97.2697
RA_OF_ASC_NODE = 79.4975
ARG_OF_PERICENTER = 89.5281
MEAN_ANOMALY   = 216.4806

EPHEMERIS_TYPE = 0
CLASSIFICATION_TYPE = U
NORAD_CAT_ID   = 67979
ELEMENT_SET_NO = 999
REV_AT_EPOCH   = 327
BSTAR          = -.68762E-2
MEAN_MOTION_DOT = -.1635939E-1
MEAN_MOTION_DDOT = 0

CCSDS_OMM_VERS = 2.0
CREATION_DATE  = 
ORIGINATOR     = 

OBJECT_NAME    = STARLINK-36882
OBJECT_ID      = 2026-038V
CENTER_NAME    = EARTH
REF_FRAME      = TEME
TIME_SYSTEM    = UTC
MEAN_ELEMENT_THEORY = SGP/SGP4

EPOCH          = 2026-03-10T04:00:01.999584
MEAN_MOTION    = 15.88702256
ECCENTRICITY   = .0001133
INCLINATION    = 97.2685
RA_OF_ASC_NODE = 79.5049
ARG_OF_PERICENTER = 89.8962
MEAN_ANOMALY   = 233.0661

EPHEMERIS_TYPE = 0
CLASSIFICATION_TYPE = U
NORAD_CAT_ID   = 67980
ELEMENT_SET_NO = 999
REV_AT_EPOCH   = 327
BSTAR          = -.66761E-2
MEAN_MOTION_DOT = -.1632044E-1
MEAN_MOTION_DDOT = 0

CCSDS_OMM_VERS = 2.0
CREATION_DATE  = 
ORIGINATOR     = 

OBJECT_NAME    = STARLINK-36874
OBJECT_ID      = 2026-038W
CENTER_NAME    = EARTH
REF_FRAME      = TEME
TIME_SYSTEM    = UTC
MEAN_ELEMENT_THEORY = SGP/SGP4

EPOCH          = 2026-03-10T02:00:03.000384
MEAN_MOTION    = 15.89294042
ECCENTRICITY   = .0001464
INCLINATION    = 97.2681
RA_OF_ASC_NODE = 79.4206
ARG_OF_PERICENTER = 80.7593
MEAN_ANOMALY   = 135.5271

EPHEMERIS_TYPE = 0
CLASSIFICATION_TYPE = U
NORAD_CAT_ID   = 67981
ELEMENT_SET_NO = 999
REV_AT_EPOCH   = 326
BSTAR          = -.64349E-2
MEAN_MOTION_DOT = -.1622434E-1
MEAN_MOTION_DDOT = 0

